STARLINK-2455
1 18117C 21027AB  21326.17029920 -.00017525  00000-0 -11739-2 0  3266
2 18117  53.0551 352.9690 0001715  57.1658  46.6593 15.06425338    13
